{
  "type": "FeatureCollection",
  "features": [
    {
      "type": "Feature",
      "properties": {
        "norad_id": 35123,
        "name": "FENGYUN 1C DEB",
        "group": "fengyun-1c-debris",
        "lat": 20.26981472886849,
        "lon": 170.00477176626373,
        "alt_km": 785.5739859898968,
        "timestamp": "2025-12-16T13:52:37.810832+00:00",
        "meta_object_name": "FENGYUN 1C DEB",
        "meta_object_id": "1999-025DLB",
        "meta_epoch": "2025-12-15T05:44:46.773600",
        "meta_mean_motion": 14.2422342,
        "meta_eccentricity": 0.00496704,
        "meta_inclination": 99.1227,
        "meta_ra_of_asc_node": 172.0178,
        "meta_arg_of_pericenter": 69.1967,
        "meta_mean_anomaly": 291.4521,
        "meta_ephemeris_type": 0,
        "meta_classification_type": "U",
        "meta_norad_cat_id": 35123,
        "meta_element_set_no": 999,
        "meta_rev_at_epoch": 61109,
        "meta_bstar": 0.00057394195,
        "meta_mean_motion_dot": 1.293e-05,
        "meta_mean_motion_ddot": 0,
        "tle_line1": "1 35123U 99025DLB 25349.23943025  .00001293  00000+0  57394-3 0  9995",
        "tle_line2": "2 35123  99.1227 172.0178 0049670  69.1967 291.4521 14.24223420611091"
      },
      "geometry": {
        "type": "Point",
        "coordinates": [
          170.00477176626373,
          20.26981472886849
        ]
      }
    },
    {
      "type": "Feature",
      "properties": {
        "norad_id": 35125,
        "name": "FENGYUN 1C DEB",
        "group": "fengyun-1c-debris",
        "lat": -46.39197392507345,
        "lon": 172.7025754550242,
        "alt_km": 767.0943231411065,
        "timestamp": "2025-12-16T13:52:37.810842+00:00",
        "meta_object_name": "FENGYUN 1C DEB",
        "meta_object_id": "1999-025DLD",
        "meta_epoch": "2025-12-08T07:05:36.118752",
        "meta_mean_motion": 14.33084151,
        "meta_eccentricity": 0.00521413,
        "meta_inclination": 98.2165,
        "meta_ra_of_asc_node": 353.5679,
        "meta_arg_of_pericenter": 308.0323,
        "meta_mean_anomaly": 51.6162,
        "meta_ephemeris_type": 0,
        "meta_classification_type": "U",
        "meta_norad_cat_id": 35125,
        "meta_element_set_no": 999,
        "meta_rev_at_epoch": 31218,
        "meta_bstar": 0.0020544677,
        "meta_mean_motion_dot": 5.68e-05,
        "meta_mean_motion_ddot": 0,
        "tle_line1": "1 35125U 99025DLD 25342.29555693  .00005680  00000+0  20545-2 0  9997",
        "tle_line2": "2 35125  98.2165 353.5679 0052141 308.0323  51.6162 14.33084151312185"
      },
      "geometry": {
        "type": "Point",
        "coordinates": [
          172.7025754550242,
          -46.39197392507345
        ]
      }
    },
    {
      "type": "Feature",
      "properties": {
        "norad_id": 35130,
        "name": "FENGYUN 1C DEB",
        "group": "fengyun-1c-debris",
        "lat": 27.49827674588799,
        "lon": -168.98855594193012,
        "alt_km": 556.259146073503,
        "timestamp": "2025-12-16T13:52:37.810852+00:00",
        "meta_object_name": "FENGYUN 1C DEB",
        "meta_object_id": "1999-025DLJ",
        "meta_epoch": "2025-12-14T07:21:05.871744",
        "meta_mean_motion": 15.00596646,
        "meta_eccentricity": 0.00101464,
        "meta_inclination": 99.0323,
        "meta_ra_of_asc_node": 193.1239,
        "meta_arg_of_pericenter": 65.1108,
        "meta_mean_anomaly": 295.1165,
        "meta_ephemeris_type": 0,
        "meta_classification_type": "U",
        "meta_norad_cat_id": 35130,
        "meta_element_set_no": 999,
        "meta_rev_at_epoch": 64937,
        "meta_bstar": 0.0087033877,
        "meta_mean_motion_dot": 0.00111682,
        "meta_mean_motion_ddot": 0,
        "tle_line1": "1 35130U 99025DLJ 25348.30631796  .00111682  00000+0  87034-2 0  9996",
        "tle_line2": "2 35130  99.0323 193.1239 0010146  65.1108 295.1165 15.00596646649371"
      },
      "geometry": {
        "type": "Point",
        "coordinates": [
          -168.98855594193012,
          27.49827674588799
        ]
      }
    },
    {
      "type": "Feature",
      "properties": {
        "norad_id": 35135,
        "name": "FENGYUN 1C DEB",
        "group": "fengyun-1c-debris",
        "lat": 19.4134483959587,
        "lon": -177.68087491836113,
        "alt_km": 839.0750816435284,
        "timestamp": "2025-12-16T13:52:37.810862+00:00",
        "meta_object_name": "FENGYUN 1C DEB",
        "meta_object_id": "1999-025DLP",
        "meta_epoch": "2025-12-15T18:32:56.959872",
        "meta_mean_motion": 14.22545358,
        "meta_eccentricity": 0.00807853,
        "meta_inclination": 98.5635,
        "meta_ra_of_asc_node": 358.4925,
        "meta_arg_of_pericenter": 275.4933,
        "meta_mean_anomaly": 83.7035,
        "meta_ephemeris_type": 0,
        "meta_classification_type": "U",
        "meta_norad_cat_id": 35135,
        "meta_element_set_no": 999,
        "meta_rev_at_epoch": 87867,
        "meta_bstar": 0.00047091267,
        "meta_mean_motion_dot": 1.044e-05,
        "meta_mean_motion_ddot": 0,
        "tle_line1": "1 35135U 99025DLP 25349.77288148  .00001044  00000+0  47091-3 0  9992",
        "tle_line2": "2 35135  98.5635 358.4925 0080785 275.4933  83.7035 14.22545358878673"
      },
      "geometry": {
        "type": "Point",
        "coordinates": [
          -177.68087491836113,
          19.4134483959587
        ]
      }
    },
    {
      "type": "Feature",
      "properties": {
        "norad_id": 35139,
        "name": "FENGYUN 1C DEB",
        "group": "fengyun-1c-debris",
        "lat": -52.38296916495477,
        "lon": 164.38533071413212,
        "alt_km": 799.2069232606373,
        "timestamp": "2025-12-16T13:52:37.810872+00:00",
        "meta_object_name": "FENGYUN 1C DEB",
        "meta_object_id": "1999-025DLT",
        "meta_epoch": "2025-11-29T06:46:18.583392",
        "meta_mean_motion": 14.21054019,
        "meta_eccentricity": 0.00685814,
        "meta_inclination": 98.5841,
        "meta_ra_of_asc_node": 338.8823,
        "meta_arg_of_pericenter": 336.9878,
        "meta_mean_anomaly": 22.8231,
        "meta_ephemeris_type": 0,
        "meta_classification_type": "U",
        "meta_norad_cat_id": 35139,
        "meta_element_set_no": 999,
        "meta_rev_at_epoch": 63962,
        "meta_bstar": 0.00042081079,
        "meta_mean_motion_dot": 8.92e-06,
        "meta_mean_motion_ddot": 0,
        "tle_line1": "1 35139U 99025DLT 25333.28215953  .00000892  00000+0  42081-3 0  9993",
        "tle_line2": "2 35139  98.5841 338.8823 0068581 336.9878  22.8231 14.21054019639626"
      },
      "geometry": {
        "type": "Point",
        "coordinates": [
          164.38533071413212,
          -52.38296916495477
        ]
      }
    },
    {
      "type": "Feature",
      "properties": {
        "norad_id": 35140,
        "name": "FENGYUN 1C DEB",
        "group": "fengyun-1c-debris",
        "lat": -33.78715439192694,
        "lon": -22.505536941584147,
        "alt_km": 620.938290115585,
        "timestamp": "2025-12-16T13:52:37.810882+00:00",
        "meta_object_name": "FENGYUN 1C DEB",
        "meta_object_id": "1999-025DLU",
        "meta_epoch": "2025-12-14T04:35:17.926080",
        "meta_mean_motion": 14.21349423,
        "meta_eccentricity": 0.02906296,
        "meta_inclination": 98.4433,
        "meta_ra_of_asc_node": 329.5041,
        "meta_arg_of_pericenter": 322.4095,
        "meta_mean_anomaly": 35.7077,
        "meta_ephemeris_type": 0,
        "meta_classification_type": "U",
        "meta_norad_cat_id": 35140,
        "meta_element_set_no": 999,
        "meta_rev_at_epoch": 87299,
        "meta_bstar": 0.00031148467,
        "meta_mean_motion_dot": 9.92e-06,
        "meta_mean_motion_ddot": 0,
        "tle_line1": "1 35140U 99025DLU 25348.19117970  .00000992  00000+0  31148-3 0  9994",
        "tle_line2": "2 35140  98.4433 329.5041 0290629 322.4095  35.7077 14.21349423872990"
      },
      "geometry": {
        "type": "Point",
        "coordinates": [
          -22.505536941584147,
          -33.78715439192694
        ]
      }
    },
    {
      "type": "Feature",
      "properties": {
        "norad_id": 35142,
        "name": "FENGYUN 1C DEB",
        "group": "fengyun-1c-debris",
        "lat": -13.007563567106866,
        "lon": 160.52108081172995,
        "alt_km": 853.9610935064002,
        "timestamp": "2025-12-16T13:52:37.810892+00:00",
        "meta_object_name": "FENGYUN 1C DEB",
        "meta_object_id": "1999-025DLW",
        "meta_epoch": "2025-12-10T17:57:11.594304",
        "meta_mean_motion": 13.90505391,
        "meta_eccentricity": 0.01075768,
        "meta_inclination": 99.0447,
        "meta_ra_of_asc_node": 336.9569,
        "meta_arg_of_pericenter": 219.5001,
        "meta_mean_anomaly": 324.8218,
        "meta_ephemeris_type": 0,
        "meta_classification_type": "U",
        "meta_norad_cat_id": 35142,
        "meta_element_set_no": 999,
        "meta_rev_at_epoch": 85661,
        "meta_bstar": 0.00028188701,
        "meta_mean_motion_dot": 3.24e-06,
        "meta_mean_motion_ddot": 0,
        "tle_line1": "1 35142U 99025DLW 25344.74805086  .00000324  00000+0  28189-3 0  9995",
        "tle_line2": "2 35142  99.0447 336.9569 0107576 219.5001 324.8218 13.90505391856615"
      },
      "geometry": {
        "type": "Point",
        "coordinates": [
          160.52108081172995,
          -13.007563567106866
        ]
      }
    }
  ]
}